QZS-1R                  
1 49336U 21096A   24262.40290955 -.00000219  00000+0  00000+0 0  9994
2 49336  36.1349  89.1143 0743664 269.7333 278.5270  1.00289844 10628
